ONEWEB-0379             
1 49305U 21090AC  25080.89821191  .00000125  00000+0  30388-3 0  9999
2 49305  87.9082  19.6390 0001959  78.7060 281.4289 13.14501138168148
ONEWEB-0380             
1 49306U 21090AD  25081.16540139 -.00000059  00000+0 -17944-3 0  9992
2 49306  87.9225  34.8146 0001753  85.8839 274.2494 13.19726358168080
ONEWEB-0381             
1 49307U 21090AE  25080.81454062  .00000160  00000+0  36239-3 0  9992
2 49307  87.9334   4.4738 0001679  81.8425 278.2899 13.20769892170118
ONEWEB-0382             
1 49308U 21090AF  25080.80189510  .00000094  00000+0  19932-3 0  9992
2 49308  87.9332   4.4722 0001956  89.7448 270.3909 13.20773695170100
ONEWEB-0383             
1 49309U 21090AG  25080.89186346  .00000140  00000+0  34249-3 0  9996
2 49309  87.9076  19.6232 0001961  82.1967 277.9385 13.14504938168179
ONEWEB-0384             
1 49310U 21090AH  25080.87441639  .00000165  00000+0  37281-3 0  9991
2 49310  87.9335   4.4735 0002065  92.2873 267.8497 13.20777178170128
ONEWEB-0385             
1 49311U 21090AJ  25080.79400668  .00000144  00000+0  32279-3 0  9999
2 49311  87.9335   4.4902 0001935  86.4982 273.6373 13.20774457170086
ONEWEB-0386             
1 49312U 21090AK  25081.03863654  .00000090  00000+0  18837-3 0  9990
2 49312  87.9331   4.4183 0002006  86.9829 273.1534 13.20773896171440
